STARLINK-34579          
1 64925U 25157X   26061.57062390  .00033571  00000+0  11401-2 0  9990
2 64925  53.1587  18.7478 0001459  87.8318 272.2850 15.30209618 35038
STARLINK-34543          
1 64926U 25157Y   26061.86037772  .00044656  00000+0  15099-2 0  9992
2 64926  53.1615  17.7088 0002166  80.7158 279.4088 15.30217474 35027
STARLINK-34661          
1 64927U 25157Z   26061.25354391  .00030780  00000+0  10471-2 0  9997
2 64927  53.1591  20.3157 0001002  90.4351 269.6764 15.30198570 34700
STARLINK-34248          
1 64928U 25157AA  26061.91302261  .00024957  00000+0  85149-3 0  9994
2 64928  53.1602  17.3247 0001247  89.3190 270.7954 15.30217114 35081
STARLINK-34290          
1 64929U 25157AB  26061.57484207  .00026667  00000+0  90902-3 0  9991
2 64929  53.1587  18.7702 0001038  57.5407 302.5694 15.30208867 35036
STARLINK-34220          
1 64930U 25157AC  26061.87819873  .00026637  00000+0  90838-3 0  9992
2 64930  53.1619  17.1031 0000900  63.5444 296.5650 15.30195101 34979
STARLINK-34715          
1 64931U 25157AD  26061.56956990  .00036774  00000+0  12478-2 0  9997
2 64931  53.1594  18.7365 0001547  77.0490 283.0684 15.30193802 35030
STARLINK-34705          
1 64932U 25158A   26061.58491457  .00006459  00000+0  45123-3 0  9994
2 64932  97.6012 287.0260 0002160  67.1291 293.0164 15.05664883 34289
STARLINK-34737          
1 64933U 25158B   26061.57383623  .00002085  00000+0  14869-3 0  9993
2 64933  97.6022 287.0422 0002023  64.4944 295.6492 15.05650817 34288
STARLINK-34775          
1 64934U 25158C   26061.63752647  .00002665  00000+0  18880-3 0  9998
2 64934  97.6021 287.1199 0001869  85.3231 274.8209 15.05651636 34294
STARLINK-34726          
1 64935U 25158D   26061.61537958  .00000975  00000+0  71752-4 0  9993
2 64935  97.6038 287.1510 0002039  71.6146 288.5302 15.05647683 34296
STARLINK-34529          
1 64936U 25158E   26061.57936837  .00006105  00000+0  42679-3 0  9994
2 64936  97.6020 287.0416 0001774  83.8921 276.2507 15.05664330 34281
STARLINK-34743          
1 64937U 25158F   26061.63475802  .00005851  00000+0  40930-3 0  9997
2 64937  97.6020 287.1237 0002416  68.9750 291.1735 15.05656255 34299
STARLINK-34730          
1 64938U 25158G   26061.59599619  .00001984  00000+0  14162-3 0  9997
2 64938  97.6010 287.1669 0002215  88.2293 271.9187 15.05658411 34295
STARLINK-34714          
1 64939U 25158H   26061.59876693  .00001305  00000+0  94641-4 0  9996
2 64939  97.6011 287.1724 0002162  52.4360 307.7063 15.05649606 34138
STARLINK-34755          
1 64940U 25158J   26061.61694951  .00000881  00000+0  73130-4 0  9994
2 64940  97.5988 287.7964 0002785  48.7654 311.3810 15.01269526 34337
STARLINK-34740          
1 64941U 25158K   26061.61261285  .00004481  00000+0  31459-3 0  9992
2 64941  97.6026 287.1531 0003172  93.5024 266.6566 15.05643604 34232
