[{"OBJECT_NAME":"STARLINK-34579","OBJECT_ID":"2025-157X","EPOCH":"2026-03-02T13:41:41.904960","MEAN_MOTION":15.30209618,"ECCENTRICITY":0.0001459,"INCLINATION":53.1587,"RA_OF_ASC_NODE":18.7478,"ARG_OF_PERICENTER":87.8318,"MEAN_ANOMALY":272.285,"EPHEMERIS_TYPE":0,"CLASSIFICATION_TYPE":"U","NORAD_CAT_ID":64925,"ELEMENT_SET_NO":999,"REV_AT_EPOCH":3503,"BSTAR":0.0011401,"MEAN_MOTION_DOT":0.00033571,"MEAN_MOTION_DDOT":0},{"OBJECT_NAME":"STARLINK-34543","OBJECT_ID":"2025-157Y","EPOCH":"2026-03-02T20:38:56.635008","MEAN_MOTION":15.30217474,"ECCENTRICITY":0.00021668,"INCLINATION":53.1615,"RA_OF_ASC_NODE":17.7088,"ARG_OF_PERICENTER":80.7158,"MEAN_ANOMALY":279.4088,"EPHEMERIS_TYPE":0,"CLASSIFICATION_TYPE":"U","NORAD_CAT_ID":64926,"ELEMENT_SET_NO":999,"REV_AT_EPOCH":3502,"BSTAR":0.0015099494,"MEAN_MOTION_DOT":0.00044656,"MEAN_MOTION_DDOT":0},{"OBJECT_NAME":"STARLINK-34661","OBJECT_ID":"2025-157Z","EPOCH":"2026-03-02T06:05:06.193824","MEAN_MOTION":15.3019857,"ECCENTRICITY":0.00010024,"INCLINATION":53.1591,"RA_OF_ASC_NODE":20.3157,"ARG_OF_PERICENTER":90.4351,"MEAN_ANOMALY":269.6764,"EPHEMERIS_TYPE":0,"CLASSIFICATION_TYPE":"U","NORAD_CAT_ID":64927,"ELEMENT_SET_NO":999,"REV_AT_EPOCH":3470,"BSTAR":0.0010470985,"MEAN_MOTION_DOT":0.0003078,"MEAN_MOTION_DDOT":0},{"OBJECT_NAME":"STARLINK-34248","OBJECT_ID":"2025-157AA","EPOCH":"2026-03-02T21:54:45.153504","MEAN_MOTION":15.30217114,"ECCENTRICITY":0.00012472,"INCLINATION":53.1602,"RA_OF_ASC_NODE":17.3247,"ARG_OF_PERICENTER":89.319,"MEAN_ANOMALY":270.7954,"EPHEMERIS_TYPE":0,"CLASSIFICATION_TYPE":"U","NORAD_CAT_ID":64928,"ELEMENT_SET_NO":999,"REV_AT_EPOCH":3508,"BSTAR":0.00085148765,"MEAN_MOTION_DOT":0.00024957,"MEAN_MOTION_DDOT":0},{"OBJECT_NAME":"STARLINK-34290","OBJECT_ID":"2025-157AB","EPOCH":"2026-03-02T13:47:46.354848","MEAN_MOTION":15.30208867,"ECCENTRICITY":0.0001038,"INCLINATION":53.1587,"RA_OF_ASC_NODE":18.7702,"ARG_OF_PERICENTER":57.5407,"MEAN_ANOMALY":302.5694,"EPHEMERIS_TYPE":0,"CLASSIFICATION_TYPE":"U","NORAD_CAT_ID":64929,"ELEMENT_SET_NO":999,"REV_AT_EPOCH":3503,"BSTAR":0.00090902,"MEAN_MOTION_DOT":0.00026667,"MEAN_MOTION_DDOT":0},{"OBJECT_NAME":"STARLINK-34220","OBJECT_ID":"2025-157AC","EPOCH":"2026-03-02T21:04:36.370272","MEAN_MOTION":15.30195101,"ECCENTRICITY":9.007e-5,"INCLINATION":53.1619,"RA_OF_ASC_NODE":17.1031,"ARG_OF_PERICENTER":63.5444,"MEAN_ANOMALY":296.565,"EPHEMERIS_TYPE":0,"CLASSIFICATION_TYPE":"U","NORAD_CAT_ID":64930,"ELEMENT_SET_NO":999,"REV_AT_EPOCH":3497,"BSTAR":0.00090838347,"MEAN_MOTION_DOT":0.00026637,"MEAN_MOTION_DDOT":0},{"OBJECT_NAME":"STARLINK-34715","OBJECT_ID":"2025-157AD","EPOCH":"2026-03-02T13:40:10.839360","MEAN_MOTION":15.30193802,"ECCENTRICITY":0.0001547,"INCLINATION":53.1594,"RA_OF_ASC_NODE":18.7365,"ARG_OF_PERICENTER":77.049,"MEAN_ANOMALY":283.0684,"EPHEMERIS_TYPE":0,"CLASSIFICATION_TYPE":"U","NORAD_CAT_ID":64931,"ELEMENT_SET_NO":999,"REV_AT_EPOCH":3503,"BSTAR":0.0012478,"MEAN_MOTION_DOT":0.00036774,"MEAN_MOTION_DDOT":0},{"OBJECT_NAME":"STARLINK-34705","OBJECT_ID":"2025-158A","EPOCH":"2026-03-02T14:02:16.618848","MEAN_MOTION":15.05664883,"ECCENTRICITY":0.000216,"INCLINATION":97.6012,"RA_OF_ASC_NODE":287.026,"ARG_OF_PERICENTER":67.1291,"MEAN_ANOMALY":293.0164,"EPHEMERIS_TYPE":0,"CLASSIFICATION_TYPE":"U","NORAD_CAT_ID":64932,"ELEMENT_SET_NO":999,"REV_AT_EPOCH":3428,"BSTAR":0.00045123,"MEAN_MOTION_DOT":6.459e-5,"MEAN_MOTION_DDOT":0},{"OBJECT_NAME":"STARLINK-34737","OBJECT_ID":"2025-158B","EPOCH":"2026-03-02T13:46:19.450272","MEAN_MOTION":15.05650817,"ECCENTRICITY":0.0002023,"INCLINATION":97.6022,"RA_OF_ASC_NODE":287.0422,"ARG_OF_PERICENTER":64.4944,"MEAN_ANOMALY":295.6492,"EPHEMERIS_TYPE":0,"CLASSIFICATION_TYPE":"U","NORAD_CAT_ID":64933,"ELEMENT_SET_NO":999,"REV_AT_EPOCH":3428,"BSTAR":0.00014869,"MEAN_MOTION_DOT":2.085e-5,"MEAN_MOTION_DDOT":0},{"OBJECT_NAME":"STARLINK-34775","OBJECT_ID":"2025-158C","EPOCH":"2026-03-02T15:18:02.287008","MEAN_MOTION":15.05651636,"ECCENTRICITY":0.0001869,"INCLINATION":97.6021,"RA_OF_ASC_NODE":287.1199,"ARG_OF_PERICENTER":85.3231,"MEAN_ANOMALY":274.8209,"EPHEMERIS_TYPE":0,"CLASSIFICATION_TYPE":"U","NORAD_CAT_ID":64934,"ELEMENT_SET_NO":999,"REV_AT_EPOCH":3429,"BSTAR":0.0001888,"MEAN_MOTION_DOT":2.665e-5,"MEAN_MOTION_DDOT":0},{"OBJECT_NAME":"STARLINK-34726","OBJECT_ID":"2025-158D","EPOCH":"2026-03-02T14:46:08.795712","MEAN_MOTION":15.05647683,"ECCENTRICITY":0.0002039,"INCLINATION":97.6038,"RA_OF_ASC_NODE":287.151,"ARG_OF_PERICENTER":71.6146,"MEAN_ANOMALY":288.5302,"EPHEMERIS_TYPE":0,"CLASSIFICATION_TYPE":"U","NORAD_CAT_ID":64935,"ELEMENT_SET_NO":999,"REV_AT_EPOCH":3429,"BSTAR":7.1752e-5,"MEAN_MOTION_DOT":9.75e-6,"MEAN_MOTION_DDOT":0},{"OBJECT_NAME":"STARLINK-34529","OBJECT_ID":"2025-158E","EPOCH":"2026-03-02T13:54:17.427168","MEAN_MOTION":15.0566433,"ECCENTRICITY":0.0001774,"INCLINATION":97.602,"RA_OF_ASC_NODE":287.0416,"ARG_OF_PERICENTER":83.8921,"MEAN_ANOMALY":276.2507,"EPHEMERIS_TYPE":0,"CLASSIFICATION_TYPE":"U","NORAD_CAT_ID":64936,"ELEMENT_SET_NO":999,"REV_AT_EPOCH":3428,"BSTAR":0.00042679,"MEAN_MOTION_DOT":6.105e-5,"MEAN_MOTION_DDOT":0},{"OBJECT_NAME":"STARLINK-34743","OBJECT_ID":"2025-158F","EPOCH":"2026-03-02T15:14:03.092928","MEAN_MOTION":15.05656255,"ECCENTRICITY":0.0002416,"INCLINATION":97.602,"RA_OF_ASC_NODE":287.1237,"ARG_OF_PERICENTER":68.975,"MEAN_ANOMALY":291.1735,"EPHEMERIS_TYPE":0,"CLASSIFICATION_TYPE":"U","NORAD_CAT_ID":64937,"ELEMENT_SET_NO":999,"REV_AT_EPOCH":3429,"BSTAR":0.0004093,"MEAN_MOTION_DOT":5.851e-5,"MEAN_MOTION_DDOT":0},{"OBJECT_NAME":"STARLINK-34730","OBJECT_ID":"2025-158G","EPOCH":"2026-03-02T14:18:14.070816","MEAN_MOTION":15.05658411,"ECCENTRICITY":0.0002215,"INCLINATION":97.601,"RA_OF_ASC_NODE":287.1669,"ARG_OF_PERICENTER":88.2293,"MEAN_ANOMALY":271.9187,"EPHEMERIS_TYPE":0,"CLASSIFICATION_TYPE":"U","NORAD_CAT_ID":64938,"ELEMENT_SET_NO":999,"REV_AT_EPOCH":3429,"BSTAR":0.00014162,"MEAN_MOTION_DOT":1.984e-5,"MEAN_MOTION_DDOT":0},{"OBJECT_NAME":"STARLINK-34714","OBJECT_ID":"2025-158H","EPOCH":"2026-03-02T14:22:13.462752","MEAN_MOTION":15.05649606,"ECCENTRICITY":0.0002162,"INCLINATION":97.6011,"RA_OF_ASC_NODE":287.1724,"ARG_OF_PERICENTER":52.436,"MEAN_ANOMALY":307.7063,"EPHEMERIS_TYPE":0,"CLASSIFICATION_TYPE":"U","NORAD_CAT_ID":64939,"ELEMENT_SET_NO":999,"REV_AT_EPOCH":3413,"BSTAR":9.4641e-5,"MEAN_MOTION_DOT":1.305e-5,"MEAN_MOTION_DDOT":0},{"OBJECT_NAME":"STARLINK-34755","OBJECT_ID":"2025-158J","EPOCH":"2026-03-02T14:48:24.437664","MEAN_MOTION":15.01269526,"ECCENTRICITY":0.0002785,"INCLINATION":97.5988,"RA_OF_ASC_NODE":287.7964,"ARG_OF_PERICENTER":48.7654,"MEAN_ANOMALY":311.381,"EPHEMERIS_TYPE":0,"CLASSIFICATION_TYPE":"U","NORAD_CAT_ID":64940,"ELEMENT_SET_NO":999,"REV_AT_EPOCH":3433,"BSTAR":7.313e-5,"MEAN_MOTION_DOT":8.81e-6,"MEAN_MOTION_DDOT":0},{"OBJECT_NAME":"STARLINK-34740","OBJECT_ID":"2025-158K","EPOCH":"2026-03-02T14:42:09.750240","MEAN_MOTION":15.05643604,"ECCENTRICITY":0.0003172,"INCLINATION":97.6026,"RA_OF_ASC_NODE":287.1531,"ARG_OF_PERICENTER":93.5024,"MEAN_ANOMALY":266.6566,"EPHEMERIS_TYPE":0,"CLASSIFICATION_TYPE":"U","NORAD_CAT_ID":64941,"ELEMENT_SET_NO":999,"REV_AT_EPOCH":3423,"BSTAR":0.00031459,"MEAN_MOTION_DOT":4.481e-5,"MEAN_MOTION_DDOT":0}]
